[{"OBJECT_NAME":"STARLINK-4563","OBJECT_ID":"2022-101AL","EPOCH":"2026-03-09T09:11:33.607104","MEAN_MOTION":15.08842859,"ECCENTRICITY":0.00013959,"INCLINATION":53.2178,"RA_OF_ASC_NODE":65.4938,"ARG_OF_PERICENTER":84.028,"MEAN_ANOMALY":276.0872,"EPHEMERIS_TYPE":0,"CLASSIFICATION_TYPE":"U","NORAD_CAT_ID":53561,"ELEMENT_SET_NO":999,"REV_AT_EPOCH":19626,"BSTAR":1.1285832e-5,"MEAN_MOTION_DOT":-1.08e-6,"MEAN_MOTION_DDOT":0},{"OBJECT_NAME":"AAC-HSI-SAT1","OBJECT_ID":"2023-054AZ","EPOCH":"2026-03-09T21:58:39.446112","MEAN_MOTION":15.121108,"ECCENTRICITY":0.00115868,"INCLINATION":97.3836,"RA_OF_ASC_NODE":308.6521,"ARG_OF_PERICENTER":105.3166,"MEAN_ANOMALY":254.9346,"EPHEMERIS_TYPE":0,"CLASSIFICATION_TYPE":"U","NORAD_CAT_ID":56225,"ELEMENT_SET_NO":999,"REV_AT_EPOCH":16036,"BSTAR":0.00016323049,"MEAN_MOTION_DOT":2.752e-5,"MEAN_MOTION_DDOT":0}]
